ONEWEB-0340             
1 49206U 21083W   24255.62560855 -.00000037  00000+0 -12574-3 0  9993
2 49206  87.9070 103.5596 0001745  78.1064 282.0264 13.18686670145152
ONEWEB-0341             
1 49207U 21083X   24255.55764129  .00000000  00000+0 -31917-4 0  9998
2 49207  87.9068 103.5861 0002469  87.2952 272.8463 13.18687254145164
ONEWEB-0342             
1 49208U 21083Y   24255.64543130  .00000103  00000+0  22089-3 0  9998
2 49208  87.9217  42.4697 0001756 101.2622 258.8708 13.20769946151837
ONEWEB-0343             
1 49209U 21083Z   24255.55291218 -.00000016  00000+0 -74468-4 0  9990
2 49209  87.9062 103.5891 0002285  93.9066 266.2328 13.18684053145216
ONEWEB-0344             
1 49210U 21083AA  24255.54455043  .00000186  00000+0  47490-3 0  9999
2 49210  87.8856  88.3329 0002143  82.3444 277.7929 13.13466621146409
ONEWEB-0345             
1 49211U 21083AB  24255.56202274 -.00000231  00000+0 -66871-3 0  9995
2 49211  87.8854  88.3020 0002190  80.0744 280.0633 13.13469352146410
ONEWEB-0346             
1 49212U 21083AC  24255.56238155 -.00000008  00000+0 -53311-4 0  9991
2 49212  87.9068 103.5942 0001738  69.5558 290.5761 13.18686978145152
ONEWEB-0348             
1 49213U 21083AD  24255.48445166  .00000050  00000+0  90229-4 0  9999
2 49213  87.9228  42.4821 0002103  77.9951 282.1418 13.20771532151848
